{"type": "FeatureCollection", "features": [ {"type": "Feature", "properties": {"norad_id": 31658, "name": "FENGYUN 1C DEB", "group": "fengyun-1c-debris", "lat": -29.076844550610367, "lon": 4.282452677127427, "alt_km": 1013.8109177027873, "timestamp": "2025-12-04T21:36:16.156327+00:00", "meta": {"OBJECT_NAME": "FENGYUN 1C DEB", "OBJECT_ID": "1999-025CBQ", "EPOCH": "2025-11-30T13:35:01.131648", "MEAN_MOTION": 13.98632883, "ECCENTRICITY": 0.0215722, "INCLINATION": 98.1534, "RA_OF_ASC_NODE": 184.9954, "ARG_OF_PERICENTER": 356.7033, "MEAN_ANOMALY": 3.2699, "EPHEMERIS_TYPE": 0, "CLASSIFICATION_TYPE": "U", "NORAD_CAT_ID": 31658, "ELEMENT_SET_NO": 999, "REV_AT_EPOCH": 69646, "BSTAR": 0.0024889, "MEAN_MOTION_DOT": 4.324e-05, "MEAN_MOTION_DDOT": 0}, "tle": {"line1": "1 31658U 99025CBQ 25334.56598532  .00004324  00000+0  24889-2 0  9993", "line2": "2 31658  98.1534 184.9954 0215722 356.7033   3.2699 13.98632883696462"}}, "geometry": {"type": "Point", "coordinates": [4.282452677127427, -29.076844550610367]}}, {"type": "Feature", "properties": {"norad_id": 31660, "name": "FENGYUN 1C DEB", "group": "fengyun-1c-debris", "lat": 5.941876959918381, "lon": -20.432623354628838, "alt_km": 872.9083012855226, "timestamp": "2025-12-04T21:36:16.156338+00:00", "meta": {"OBJECT_NAME": "FENGYUN 1C DEB", "OBJECT_ID": "1999-025CBS", "EPOCH": "2025-12-04T06:25:52.833504", "MEAN_MOTION": 14.27084649, "ECCENTRICITY": 0.01013285, "INCLINATION": 98.5047, "RA_OF_ASC_NODE": 339.8449, "ARG_OF_PERICENTER": 205.5295, "MEAN_ANOMALY": 154.0863, "EPHEMERIS_TYPE": 0, "CLASSIFICATION_TYPE": "U", "NORAD_CAT_ID": 31660, "ELEMENT_SET_NO": 999, "REV_AT_EPOCH": 7795, "BSTAR": 0.0012371733, "MEAN_MOTION_DOT": 3.142e-05, "MEAN_MOTION_DDOT": 0}, "tle": {"line1": "1 31660U 99025CBS 25338.26797261  .00003142  00000+0  12372-2 0  9998", "line2": "2 31660  98.5047 339.8449 0101328 205.5295 154.0863 14.27084649 77954"}}, "geometry": {"type": "Point", "coordinates": [-20.432623354628838, 5.941876959918381]}}, {"type": "Feature", "properties": {"norad_id": 31661, "name": "FENGYUN 1C DEB", "group": "fengyun-1c-debris", "lat": 62.72418725750513, "lon": -104.48618224973433, "alt_km": 827.9727927189142, "timestamp": "2025-12-04T21:36:16.156348+00:00", "meta": {"OBJECT_NAME": "FENGYUN 1C DEB", "OBJECT_ID": "1999-025CBT", "EPOCH": "2025-12-03T11:56:34.350720", "MEAN_MOTION": 14.2530815, "ECCENTRICITY": 0.00578804, "INCLINATION": 98.8613, "RA_OF_ASC_NODE": 56.4857, "ARG_OF_PERICENTER": 250.1419, "MEAN_ANOMALY": 233.5061, "EPHEMERIS_TYPE": 0, "CLASSIFICATION_TYPE": "U", "NORAD_CAT_ID": 31661, "ELEMENT_SET_NO": 999, "REV_AT_EPOCH": 95581, "BSTAR": 0.0026039452, "MEAN_MOTION_DOT": 6.198e-05, "MEAN_MOTION_DDOT": 0}, "tle": {"line1": "1 31661U 99025CBT 25337.49761980  .00006198  00000+0  26039-2 0  9991", "line2": "2 31661  98.8613  56.4857 0057880 250.1419 233.5061 14.25308150955816"}}, "geometry": {"type": "Point", "coordinates": [-104.48618224973433, 62.72418725750513]}}, {"type": "Feature", "properties": {"norad_id": 31663, "name": "FENGYUN 1C DEB", "group": "fengyun-1c-debris", "lat": -43.10272576888208, "lon": -105.59784948276568, "alt_km": 567.7441384145768, "timestamp": "2025-12-04T21:36:16.156359+00:00", "meta": {"OBJECT_NAME": "FENGYUN 1C DEB", "OBJECT_ID": "1999-025CBV", "EPOCH": "2025-12-03T11:38:28.212864", "MEAN_MOTION": 14.76310711, "ECCENTRICITY": 0.01897685, "INCLINATION": 98.838, "RA_OF_ASC_NODE": 244.4812, "ARG_OF_PERICENTER": 266.7407, "MEAN_ANOMALY": 91.2075, "EPHEMERIS_TYPE": 0, "CLASSIFICATION_TYPE": "U", "NORAD_CAT_ID": 31663, "ELEMENT_SET_NO": 999, "REV_AT_EPOCH": 99143, "BSTAR": 0.0005527041, "MEAN_MOTION_DOT": 5.081e-05, "MEAN_MOTION_DDOT": 0}, "tle": {"line1": "1 31663U 99025CBV 25337.48504876  .00005081  00000+0  55270-3 0  9991", "line2": "2 31663  98.8380 244.4812 0189768 266.7407  91.2075 14.76310711991434"}}, "geometry": {"type": "Point", "coordinates": [-105.59784948276568, -43.10272576888208]}}, {"type": "Feature", "properties": {"norad_id": 31664, "name": "FENGYUN 1C DEB", "group": "fengyun-1c-debris", "lat": -20.53306146064908, "lon": 147.31419527536193, "alt_km": 779.0036014273637, "timestamp": "2025-12-04T21:36:16.156369+00:00", "meta": {"OBJECT_NAME": "FENGYUN 1C DEB", "OBJECT_ID": "1999-025CBW", "EPOCH": "2025-12-03T10:36:10.391616", "MEAN_MOTION": 14.10277836, "ECCENTRICITY": 0.01244156, "INCLINATION": 98.7516, "RA_OF_ASC_NODE": 329.2022, "ARG_OF_PERICENTER": 184.4459, "MEAN_ANOMALY": 175.5617, "EPHEMERIS_TYPE": 0, "CLASSIFICATION_TYPE": "U", "NORAD_CAT_ID": 31664, "ELEMENT_SET_NO": 999, "REV_AT_EPOCH": 95870, "BSTAR": 0.00040064903, "MEAN_MOTION_DOT": 7.21e-06, "MEAN_MOTION_DDOT": 0}, "tle": {"line1": "1 31664U 99025CBW 25337.44178694  .00000721  00000+0  40065-3 0  9995", "line2": "2 31664  98.7516 329.2022 0124415 184.4459 175.5617 14.10277836958700"}}, "geometry": {"type": "Point", "coordinates": [147.31419527536193, -20.53306146064908]}}, {"type": "Feature", "properties": {"norad_id": 31665, "name": "FENGYUN 1C DEB", "group": "fengyun-1c-debris", "lat": -44.20129753484596, "lon": -165.6806585784002, "alt_km": 819.8531827008874, "timestamp": "2025-12-04T21:36:16.156379+00:00", "meta": {"OBJECT_NAME": "FENGYUN 1C DEB", "OBJECT_ID": "1999-025CBX", "EPOCH": "2025-11-29T13:55:45.257088", "MEAN_MOTION": 13.84758836, "ECCENTRICITY": 0.01900248, "INCLINATION": 98.4512, "RA_OF_ASC_NODE": 17.8375, "ARG_OF_PERICENTER": 222.9369, "MEAN_ANOMALY": 135.6823, "EPHEMERIS_TYPE": 0, "CLASSIFICATION_TYPE": "U", "NORAD_CAT_ID": 31665, "ELEMENT_SET_NO": 999, "REV_AT_EPOCH": 93009, "BSTAR": 0.0012069056, "MEAN_MOTION_DOT": 1.525e-05, "MEAN_MOTION_DDOT": 0}, "tle": {"line1": "1 31665U 99025CBX 25333.58038492  .00001525  00000+0  12069-2 0  9993", "line2": "2 31665  98.4512  17.8375 0190024 222.9369 135.6823 13.84758836930094"}}, "geometry": {"type": "Point", "coordinates": [-165.6806585784002, -44.20129753484596]}}, {"type": "Feature", "properties": {"norad_id": 31666, "name": "FENGYUN 1C DEB", "group": "fengyun-1c-debris", "lat": 29.61908202319514, "lon": 121.95388986975307, "alt_km": 634.0580352272264, "timestamp": "2025-12-04T21:36:16.156389+00:00", "meta": {"OBJECT_NAME": "FENGYUN 1C DEB", "OBJECT_ID": "1999-025CBY", "EPOCH": "2025-12-01T09:15:11.992608", "MEAN_MOTION": 14.82644549, "ECCENTRICITY": 0.00263225, "INCLINATION": 98.6562, "RA_OF_ASC_NODE": 123.1201, "ARG_OF_PERICENTER": 188.8412, "MEAN_ANOMALY": 171.2339, "EPHEMERIS_TYPE": 0, "CLASSIFICATION_TYPE": "U", "NORAD_CAT_ID": 31666, "ELEMENT_SET_NO": 999, "REV_AT_EPOCH": 97103, "BSTAR": 0.0054771362, "MEAN_MOTION_DOT": 0.0004461, "MEAN_MOTION_DDOT": 0}, "tle": {"line1": "1 31666U 99025CBY 25335.38555547  .00044610  00000+0  54771-2 0  9997", "line2": "2 31666  98.6562 123.1201 0026322 188.8412 171.2339 14.82644549971030"}}, "geometry": {"type": "Point", "coordinates": [121.95388986975307, 29.61908202319514]}}, {"type": "Feature", "properties": {"norad_id": 31667, "name": "FENGYUN 1C DEB", "group": "fengyun-1c-debris", "lat": 29.232838591885464, "lon": -174.49448194787357, "alt_km": 805.3461652737678, "timestamp": "2025-12-04T21:36:16.156399+00:00", "meta": {"OBJECT_NAME": "FENGYUN 1C DEB", "OBJECT_ID": "1999-025CBZ", "EPOCH": "2025-12-03T10:02:22.672608", "MEAN_MOTION": 14.2348358, "ECCENTRICITY": 0.00516043, "INCLINATION": 99.0856, "RA_OF_ASC_NODE": 189.1139, "ARG_OF_PERICENTER": 113.7693, "MEAN_ANOMALY": 246.8908, "EPHEMERIS_TYPE": 0, "CLASSIFICATION_TYPE": "U", "NORAD_CAT_ID": 31667, "ELEMENT_SET_NO": 999, "REV_AT_EPOCH": 55860, "BSTAR": 0.0003571101, "MEAN_MOTION_DOT": 7.76e-06, "MEAN_MOTION_DDOT": 0}, "tle": {"line1": "1 31667U 99025CBZ 25337.41831797  .00000776  00000+0  35711-3 0  9997", "line2": "2 31667  99.0856 189.1139 0051604 113.7693 246.8908 14.23483580558609"}}, "geometry": {"type": "Point", "coordinates": [-174.49448194787357, 29.232838591885464]}}, {"type": "Feature", "properties": {"norad_id": 31672, "name": "FENGYUN 1C DEB", "group": "fengyun-1c-debris", "lat": 54.77594744740331, "lon": 153.08691404025006, "alt_km": 668.6799040576816, "timestamp": "2025-12-04T21:36:16.156409+00:00", "meta": {"OBJECT_NAME": "FENGYUN 1C DEB", "OBJECT_ID": "1999-025CCE", "EPOCH": "2025-12-03T05:37:36.272640", "MEAN_MOTION": 14.50722016, "ECCENTRICITY": 0.0108218, "INCLINATION": 98.9573, "RA_OF_ASC_NODE": 164.223, "ARG_OF_PERICENTER": 10.2835, "MEAN_ANOMALY": 350.0536, "EPHEMERIS_TYPE": 0, "CLASSIFICATION_TYPE": "U", "NORAD_CAT_ID": 31672, "ELEMENT_SET_NO": 999, "REV_AT_EPOCH": 64733, "BSTAR": 0.001939, "MEAN_MOTION_DOT": 8.176e-05, "MEAN_MOTION_DDOT": 0}, "tle": {"line1": "1 31672U 99025CCE 25337.23444760  .00008176  00000+0  19390-2 0  9999", "line2": "2 31672  98.9573 164.2230 0108218  10.2835 350.0536 14.50722016647332"}}, "geometry": {"type": "Point", "coordinates": [153.08691404025006, 54.77594744740331]}}, {"type": "Feature", "properties": {"norad_id": 31673, "name": "FENGYUN 1C DEB", "group": "fengyun-1c-debris", "lat": -39.02178556468603, "lon": -14.951341003146016, "alt_km": 868.0056980866293, "timestamp": "2025-12-04T21:36:16.156420+00:00", "meta": {"OBJECT_NAME": "FENGYUN 1C DEB", "OBJECT_ID": "1999-025CCF", "EPOCH": "2025-12-01T12:05:46.557312", "MEAN_MOTION": 14.31920513, "ECCENTRICITY": 0.01258857, "INCLINATION": 99.374, "RA_OF_ASC_NODE": 169.0754, "ARG_OF_PERICENTER": 81.1692, "MEAN_ANOMALY": 280.3719, "EPHEMERIS_TYPE": 0, "CLASSIFICATION_TYPE": "U", "NORAD_CAT_ID": 31673, "ELEMENT_SET_NO": 999, "REV_AT_EPOCH": 64730, "BSTAR": 0.00025702529, "MEAN_MOTION_DOT": 7e-06, "MEAN_MOTION_DDOT": 0}, "tle": {"line1": "1 31673U 99025CCF 25335.50401108  .00000700  00000+0  25703-3 0  9998", "line2": "2 31673  99.3740 169.0754 0125885  81.1692 280.3719 14.31920513647301"}}, "geometry": {"type": "Point", "coordinates": [-14.951341003146016, -39.02178556468603]}}]}